[Satellite]
VERSION=1.1
NAME=FORMOSAT 3D
NICKNAME=FORMOSAT 3D
TLE1=1 29050U 06011D   15054.52825232  .00001424  00000-0  31737-3 0  9993
TLE2=2 29050  72.0175 166.9096 0052848 251.3539 108.1871 14.57572764473448
